start=new Date('%Y-%m-41T00:00:00.000Z').valueOf();
sats=[{"MEAN_MOTION_DOT":"0.00000686","PERIOD":"95.592","ELEMENT_SET_NO":"999","OBJECT_NAME":"STARLINK-1678","MEAN_MOTION":"15.06398936","EPOCH":"2021-08-20T19:28:48.618048","MEAN_MOTION_DDOT":"0.0000000000000","EPHEMERIS_TYPE":"0","TLE_LINE2":"2 46538  53.0561  77.0921 0002118  96.8027 263.3203 15.06398936 49011","INCLINATION":"53.0561","MEAN_ANOMALY":"263.3203","PERIAPSIS":"545.750","SITE":"AFETR","REF_FRAME":"TEME","COUNTRY_CODE":"US","RCS_SIZE":"LARGE","REV_AT_EPOCH":"4901","LAUNCH_DATE":"2020-10-06","MEAN_ELEMENT_THEORY":"SGP4","NORAD_CAT_ID":"46538","DECAY_DATE":null,"OBJECT_ID":"2020-070G","FILE":"3100512","GP_ID":"183155198","APOAPSIS":"548.684","ARG_OF_PERICENTER":"96.8027","TLE_LINE1":"1 46538U 20070G   21232.81167382  .00000686  00000-0  64977-4 0  9998","TIME_SYSTEM":"UTC","BSTAR":"0.00006497700000","SEMIMAJOR_AXIS":"6925.352","RA_OF_ASC_NODE":"77.0921","CENTER_NAME":"EARTH","CLASSIFICATION_TYPE":"U","ECCENTRICITY":"0.00021180","OBJECT_TYPE":"PAYLOAD"},{"MEAN_MOTION":"15.06395525","OBJECT_NAME":"STARLINK-1684","ELEMENT_SET_NO":"999","PERIOD":"95.592","MEAN_MOTION_DOT":"0.00001009","EPHEMERIS_TYPE":"0","TLE_LINE2":"2 46539  53.0552  76.2291 0005083  85.2337 274.9232 15.06395525 48765","MEAN_MOTION_DDOT":"0.0000000000000","EPOCH":"2021-08-21T00:04:49.980000","REF_FRAME":"TEME","SITE":"AFETR","PERIAPSIS":"543.707","MEAN_ANOMALY":"274.9232","INCLINATION":"53.0552","NORAD_CAT_ID":"46539","REV_AT_EPOCH":"4876","LAUNCH_DATE":"2020-10-06","MEAN_ELEMENT_THEORY":"SGP4","RCS_SIZE":"LARGE","COUNTRY_CODE":"US","GP_ID":"183162065","FILE":"3100702","OBJECT_ID":"2020-070H","DECAY_DATE":null,"ARG_OF_PERICENTER":"85.2337","APOAPSIS":"550.747","SEMIMAJOR_AXIS":"6925.362","BSTAR":"0.00008674000000","TIME_SYSTEM":"UTC","TLE_LINE1":"1 46539U 20070H   21233.00335625  .00001009  00000-0  86740-4 0  9990","OBJECT_TYPE":"PAYLOAD","ECCENTRICITY":"0.00050830","CLASSIFICATION_TYPE":"U","CENTER_NAME":"EARTH","RA_OF_ASC_NODE":"76.2291"},{"CLASSIFICATION_TYPE":"U","CENTER_NAME":"EARTH","RA_OF_ASC_NODE":"19.6342","OBJECT_TYPE":"PAYLOAD","ECCENTRICITY":"0.00048360","BSTAR":"0.00209380000000","TIME_SYSTEM":"UTC","TLE_LINE1":"1 46540U 20070J   21233.51245740  .00862677  33994-3  20938-2 0  9998","SEMIMAJOR_AXIS":"6664.366","ARG_OF_PERICENTER":"339.0728","APOAPSIS":"289.454","FILE":"3100801","OBJECT_ID":"2020-070J","DECAY_DATE":null,"GP_ID":"183163778","MEAN_ELEMENT_THEORY":"SGP4","LAUNCH_DATE":"2020-10-06","REV_AT_EPOCH":"4989","RCS_SIZE":"LARGE","COUNTRY_CODE":"US","NORAD_CAT_ID":"46540","MEAN_ANOMALY":"20.9993","INCLINATION":"53.0536","SITE":"AFETR","REF_FRAME":"TEME","PERIAPSIS":"283.008","EPOCH":"2021-08-21T12:17:56.319360","TLE_LINE2":"2 46540  53.0536  19.6342 0004836 339.0728  20.9993 15.95748685 49891","EPHEMERIS_TYPE":"0","MEAN_MOTION_DDOT":"0.0003399400000","MEAN_MOTION_DOT":"0.00862677","MEAN_MOTION":"15.95748685","OBJECT_NAME":"STARLINK-1685","ELEMENT_SET_NO":"999","PERIOD":"90.240"},{"EPOCH":"2021-08-21T07:43:56.275104","EPHEMERIS_TYPE":"0","TLE_LINE2":"2 46541  53.0544  54.7868 0002197  92.4354 267.6887 15.06401974 49371","MEAN_MOTION_DDOT":"0.0000000000000","MEAN_MOTION_DOT":"0.00000679","ELEMENT_SET_NO":"999","PERIOD":"95.592","OBJECT_NAME":"STARLINK-1687","MEAN_MOTION":"15.06401974","MEAN_ELEMENT_THEORY":"SGP4","LAUNCH_DATE":"2020-10-06","REV_AT_EPOCH":"4937","COUNTRY_CODE":"US","RCS_SIZE":"LARGE","NORAD_CAT_ID":"46541","MEAN_ANOMALY":"267.6887","INCLINATION":"53.0544","PERIAPSIS":"545.686","REF_FRAME":"TEME","SITE":"AFETR","APOAPSIS":"548.729","ARG_OF_PERICENTER":"92.4354","OBJECT_ID":"2020-070K","DECAY_DATE":null,"FILE":"3100801","GP_ID":"183163776","CENTER_NAME":"EARTH","RA_OF_ASC_NODE":"54.7868","CLASSIFICATION_TYPE":"U","ECCENTRICITY":"0.00021970","OBJECT_TYPE":"PAYLOAD","TLE_LINE1":"1 46541U 20070K   21233.32217911  .00000679  00000-0  64460-4 0  9992","TIME_SYSTEM":"UTC","BSTAR":"0.00006446000000","SEMIMAJOR_AXIS":"6925.343"},{"ARG_OF_PERICENTER":"97.3780","APOAPSIS":"548.674","FILE":"3100702","OBJECT_ID":"2020-070L","DECAY_DATE":null,"GP_ID":"183161854","CLASSIFICATION_TYPE":"U","CENTER_NAME":"EARTH","RA_OF_ASC_NODE":"76.2813","OBJECT_TYPE":"PAYLOAD","ECCENTRICITY":"0.00020960","BSTAR":"-0.00004029800000","TLE_LINE1":"1 46542U 20070L   21232.99228998 -.00000882  00000-0 -40298-4 0  9993","TIME_SYSTEM":"UTC","SEMIMAJOR_AXIS":"6925.358","EPOCH":"2021-08-20T23:48:53.854272","EPHEMERIS_TYPE":"0","TLE_LINE2":"2 46542  53.0562  76.2813 0002096  97.3780 262.7447 15.06396963 49061","MEAN_MOTION_DDOT":"0.0000000000000","MEAN_MOTION_DOT":"-0.00000882","OBJECT_NAME":"STARLINK-1692","MEAN_MOTION":"15.06396963","ELEMENT_SET_NO":"999","PERIOD":"95.592","REV_AT_EPOCH":"4906","LAUNCH_DATE":"2020-10-06","MEAN_ELEMENT_THEORY":"SGP4","RCS_SIZE":"LARGE","COUNTRY_CODE":"US","NORAD_CAT_ID":"46542","MEAN_ANOMALY":"262.7447","INCLINATION":"53.0562","REF_FRAME":"TEME","SITE":"AFETR","PERIAPSIS":"545.771"},{"MEAN_MOTION_DOT":"0.00000962","ELEMENT_SET_NO":"999","PERIOD":"95.592","OBJECT_NAME":"STARLINK-1693","MEAN_MOTION":"15.06401751","EPOCH":"2021-08-20T18:41:02.469984","TLE_LINE2":"2 46543  53.0543  77.2296 0001958  97.7446 262.3766 15.06401751 49013","EPHEMERIS_TYPE":"0","MEAN_MOTION_DDOT":"0.0000000000000","MEAN_ANOMALY":"262.3766","INCLINATION":"53.0543","PERIAPSIS":"545.852","REF_FRAME":"TEME","SITE":"AFETR","MEAN_ELEMENT_THEORY":"SGP4","LAUNCH_DATE":"2020-10-06","REV_AT_EPOCH":"4901","COUNTRY_CODE":"US","RCS_SIZE":"LARGE","NORAD_CAT_ID":"46543","OBJECT_ID":"2020-070M","DECAY_DATE":null,"FILE":"3100512","GP_ID":"183154948","APOAPSIS":"548.564","ARG_OF_PERICENTER":"97.7446","TLE_LINE1":"1 46543U 20070M   21232.77850081  .00000962  00000-0  83485-4 0  9996","TIME_SYSTEM":"UTC","BSTAR":"0.00008348500000","SEMIMAJOR_AXIS":"6925.343","CENTER_NAME":"EARTH","RA_OF_ASC_NODE":"77.2296","CLASSIFICATION_TYPE":"U","ECCENTRICITY":"0.00019580","OBJECT_TYPE":"PAYLOAD"},{"PERIAPSIS":"545.949","SITE":"AFETR","REF_FRAME":"TEME","MEAN_ANOMALY":"268.6310","INCLINATION":"53.0553","NORAD_CAT_ID":"46544","LAUNCH_DATE":"2020-10-06","MEAN_ELEMENT_THEORY":"SGP4","REV_AT_EPOCH":"4918","COUNTRY_CODE":"US","RCS_SIZE":"LARGE","ELEMENT_SET_NO":"999","PERIOD":"95.592","MEAN_MOTION":"15.06398312","OBJECT_NAME":"STARLINK-1694","MEAN_MOTION_DOT":"0.00000634","TLE_LINE2":"2 46544  53.0553  63.4332 0001834  91.4889 268.6310 15.06398312 49188","EPHEMERIS_TYPE":"0","MEAN_MOTION_DDOT":"0.0000000000000","EPOCH":"2021-08-20T12:12:54.821376","SEMIMAJOR_AXIS":"6925.354","TLE_LINE1":"1 46544U 20070N   21232.50896784  .00000634  00000-0  61445-4 0  9996","TIME_SYSTEM":"UTC","BSTAR":"0.00006144500000","ECCENTRICITY":"0.00018340","OBJECT_TYPE":"PAYLOAD","CENTER_NAME":"EARTH","RA_OF_ASC_NODE":"63.4332","CLASSIFICATION_TYPE":"U","GP_ID":"183156200","OBJECT_ID":"2020-070N","DECAY_DATE":null,"FILE":"3100512","APOAPSIS":"548.489","ARG_OF_PERICENTER":"91.4889"},{"APOAPSIS":"548.675","ARG_OF_PERICENTER":"91.4657","DECAY_DATE":null,"OBJECT_ID":"2020-070P","FILE":"3100713","GP_ID":"183162071","RA_OF_ASC_NODE":"75.8791","CENTER_NAME":"EARTH","CLASSIFICATION_TYPE":"U","ECCENTRICITY":"0.00019640","OBJECT_TYPE":"PAYLOAD","TLE_LINE1":"1 46545U 20070P   21233.08079206 -.00002042  00000-0 -11835-3 0  9997","TIME_SYSTEM":"UTC","BSTAR":"-0.00011835000000","SEMIMAJOR_AXIS":"6925.450","EPOCH":"2021-08-21T01:56:20.433984","MEAN_MOTION_DDOT":"0.0000000000000","TLE_LINE2":"2 46545  53.0547  75.8791 0001964  91.4657 268.6557 15.06366897 49068","EPHEMERIS_TYPE":"0","MEAN_MOTION_DOT":"-0.00002042","PERIOD":"95.594","ELEMENT_SET_NO":"999","MEAN_MOTION":"15.06366897","OBJECT_NAME":"STARLINK-1696","COUNTRY_CODE":"US","RCS_SIZE":"LARGE","REV_AT_EPOCH":"4906","LAUNCH_DATE":"2020-10-06","MEAN_ELEMENT_THEORY":"SGP4","NORAD_CAT_ID":"46545","INCLINATION":"53.0547","MEAN_ANOMALY":"268.6557","PERIAPSIS":"545.955","REF_FRAME":"TEME","SITE":"AFETR"},{"GP_ID":"183155199","DECAY_DATE":null,"OBJECT_ID":"2020-070Q","FILE":"3100512","APOAPSIS":"548.634","ARG_OF_PERICENTER":"97.6751","SEMIMAJOR_AXIS":"6925.352","TIME_SYSTEM":"UTC","TLE_LINE1":"1 46546U 20070Q   21232.66792653  .00000869  00000-0  77230-4 0  9994","BSTAR":"0.00007723000000","ECCENTRICITY":"0.00020450","OBJECT_TYPE":"PAYLOAD","RA_OF_ASC_NODE":"77.7262","CENTER_NAME":"EARTH","CLASSIFICATION_TYPE":"U","PERIOD":"95.592","ELEMENT_SET_NO":"999","OBJECT_NAME":"STARLINK-1697","MEAN_MOTION":"15.06398744","MEAN_MOTION_DOT":"0.00000869","MEAN_MOTION_DDOT":"0.0000000000000","TLE_LINE2":"2 46546  53.0542  77.7262 0002045  97.6751 262.4470 15.06398744 48995","EPHEMERIS_TYPE":"0","EPOCH":"2021-08-20T16:01:48.852192","PERIAPSIS":"545.801","SITE":"AFETR","REF_FRAME":"TEME","INCLINATION":"53.0542","MEAN_ANOMALY":"262.4470","NORAD_CAT_ID":"46546","RCS_SIZE":"LARGE","COUNTRY_CODE":"US","LAUNCH_DATE":"2020-10-06","REV_AT_EPOCH":"4899","MEAN_ELEMENT_THEORY":"SGP4"},{"ARG_OF_PERICENTER":"81.9597","APOAPSIS":"548.716","GP_ID":"183155449","FILE":"3100512","DECAY_DATE":null,"OBJECT_ID":"2020-070R","OBJECT_TYPE":"PAYLOAD","ECCENTRICITY":"0.00021480","CLASSIFICATION_TYPE":"U","RA_OF_ASC_NODE":"77.0037","CENTER_NAME":"EARTH","SEMIMAJOR_AXIS":"6925.364","BSTAR":"-0.00004385100000","TIME_SYSTEM":"UTC","TLE_LINE1":"1 46547U 20070R   21232.83011559 -.00000935  00000-0 -43851-4 0  9991","MEAN_MOTION_DDOT":"0.0000000000000","TLE_LINE2":"2 46547  53.0561  77.0037 0002148  81.9597 278.1636 15.06395007 49020","EPHEMERIS_TYPE":"0","EPOCH":"2021-08-20T19:55:21.986976","MEAN_MOTION":"15.06395007","OBJECT_NAME":"STARLINK-1698","PERIOD":"95.592","ELEMENT_SET_NO":"999","MEAN_MOTION_DOT":"-0.00000935","NORAD_CAT_ID":"46547","COUNTRY_CODE":"US","RCS_SIZE":"LARGE","LAUNCH_DATE":"2020-10-06","MEAN_ELEMENT_THEORY":"SGP4","REV_AT_EPOCH":"4902","SITE":"AFETR","REF_FRAME":"TEME","PERIAPSIS":"545.741","INCLINATION":"53.0561","MEAN_ANOMALY":"278.1636"}];
